{"type": "FeatureCollection", "features": [ {"type": "Feature", "properties": {"norad_id": 33905, "name": "COSMOS 2251 DEB", "group": "cosmos-2251-debris", "lat": 39.548226426475225, "lon": 96.27234393943125, "alt_km": 737.4506574995748, "timestamp": "2025-12-27T02:10:16.581940+00:00", "meta": {"OBJECT_NAME": "COSMOS 2251 DEB", "OBJECT_ID": "1993-036DJ", "EPOCH": "2025-12-26T20:46:27.325056", "MEAN_MOTION": 14.35432375, "ECCENTRICITY": 0.0058034, "INCLINATION": 73.887, "RA_OF_ASC_NODE": 290.4981, "ARG_OF_PERICENTER": 176.9413, "MEAN_ANOMALY": 240.2772, "EPHEMERIS_TYPE": 0, "CLASSIFICATION_TYPE": "U", "NORAD_CAT_ID": 33905, "ELEMENT_SET_NO": 999, "REV_AT_EPOCH": 87890, "BSTAR": 0.0005736, "MEAN_MOTION_DOT": 1.653e-05, "MEAN_MOTION_DDOT": 0}, "tle": {"line1": "1 33905U 93036DJ  25360.86559404  .00001653  00000+0  57360-3 0  9996", "line2": "2 33905  73.8870 290.4981 0058034 176.9413 240.2772 14.35432375878902"}}, "geometry": {"type": "Point", "coordinates": [96.27234393943125, 39.548226426475225]}}, {"type": "Feature", "properties": {"norad_id": 33906, "name": "COSMOS 2251 DEB", "group": "cosmos-2251-debris", "lat": 63.662536652482345, "lon": -30.455571881562225, "alt_km": 702.8847249487744, "timestamp": "2025-12-27T02:10:16.581950+00:00", "meta": {"OBJECT_NAME": "COSMOS 2251 DEB", "OBJECT_ID": "1993-036DK", "EPOCH": "2025-12-26T19:24:09.861408", "MEAN_MOTION": 14.5732488, "ECCENTRICITY": 0.0036938, "INCLINATION": 74.0294, "RA_OF_ASC_NODE": 294.7358, "ARG_OF_PERICENTER": 322.2477, "MEAN_ANOMALY": 67.1808, "EPHEMERIS_TYPE": 0, "CLASSIFICATION_TYPE": "U", "NORAD_CAT_ID": 33906, "ELEMENT_SET_NO": 999, "REV_AT_EPOCH": 88213, "BSTAR": 0.001958, "MEAN_MOTION_DOT": 8.93e-05, "MEAN_MOTION_DDOT": 0}, "tle": {"line1": "1 33906U 93036DK  25360.80844747  .00008930  00000+0  19580-2 0  9994", "line2": "2 33906  74.0294 294.7358 0036938 322.2477  67.1808 14.57324880882137"}}, "geometry": {"type": "Point", "coordinates": [-30.455571881562225, 63.662536652482345]}}, {"type": "Feature", "properties": {"norad_id": 33907, "name": "COSMOS 2251 DEB", "group": "cosmos-2251-debris", "lat": 66.8353405264065, "lon": 145.712054921657, "alt_km": 728.7247986747179, "timestamp": "2025-12-27T02:10:16.581960+00:00", "meta": {"OBJECT_NAME": "COSMOS 2251 DEB", "OBJECT_ID": "1993-036DL", "EPOCH": "2025-12-26T11:07:59.162016", "MEAN_MOTION": 14.30635285, "ECCENTRICITY": 0.0111967, "INCLINATION": 74.0706, "RA_OF_ASC_NODE": 8.7228, "ARG_OF_PERICENTER": 60.0979, "MEAN_ANOMALY": 60.119, "EPHEMERIS_TYPE": 0, "CLASSIFICATION_TYPE": "U", "NORAD_CAT_ID": 33907, "ELEMENT_SET_NO": 999, "REV_AT_EPOCH": 86776, "BSTAR": 0.0020247, "MEAN_MOTION_DOT": 5.643e-05, "MEAN_MOTION_DDOT": 0}, "tle": {"line1": "1 33907U 93036DL  25360.46387919  .00005643  00000+0  20247-2 0  9990", "line2": "2 33907  74.0706   8.7228 0111967  60.0979  60.1190 14.30635285867769"}}, "geometry": {"type": "Point", "coordinates": [145.712054921657, 66.8353405264065]}}, {"type": "Feature", "properties": {"norad_id": 33908, "name": "COSMOS 2251 DEB", "group": "cosmos-2251-debris", "lat": 19.345349747486235, "lon": -173.85671676936107, "alt_km": 1028.7602109862191, "timestamp": "2025-12-27T02:10:16.581971+00:00", "meta": {"OBJECT_NAME": "COSMOS 2251 DEB", "OBJECT_ID": "1993-036DM", "EPOCH": "2025-12-26T19:14:52.749024", "MEAN_MOTION": 14.07462925, "ECCENTRICITY": 0.0222118, "INCLINATION": 73.8372, "RA_OF_ASC_NODE": 180.8113, "ARG_OF_PERICENTER": 201.7585, "MEAN_ANOMALY": 157.4007, "EPHEMERIS_TYPE": 0, "CLASSIFICATION_TYPE": "U", "NORAD_CAT_ID": 33908, "ELEMENT_SET_NO": 999, "REV_AT_EPOCH": 85671, "BSTAR": 0.0028429, "MEAN_MOTION_DOT": 5.974e-05, "MEAN_MOTION_DDOT": 0}, "tle": {"line1": "1 33908U 93036DM  25360.80199941  .00005974  00000+0  28429-2 0  9992", "line2": "2 33908  73.8372 180.8113 0222118 201.7585 157.4007 14.07462925856712"}}, "geometry": {"type": "Point", "coordinates": [-173.85671676936107, 19.345349747486235]}}, {"type": "Feature", "properties": {"norad_id": 33911, "name": "COSMOS 2251 DEB", "group": "cosmos-2251-debris", "lat": 37.633541383352934, "lon": 146.60671064026081, "alt_km": 632.3757216012273, "timestamp": "2025-12-27T02:10:16.581980+00:00", "meta": {"OBJECT_NAME": "COSMOS 2251 DEB", "OBJECT_ID": "1993-036DQ", "EPOCH": "2025-12-26T13:32:35.142432", "MEAN_MOTION": 14.75214363, "ECCENTRICITY": 0.0014056, "INCLINATION": 74.0903, "RA_OF_ASC_NODE": 134.9269, "ARG_OF_PERICENTER": 65.426, "MEAN_ANOMALY": 60.9068, "EPHEMERIS_TYPE": 0, "CLASSIFICATION_TYPE": "U", "NORAD_CAT_ID": 33911, "ELEMENT_SET_NO": 999, "REV_AT_EPOCH": 88848, "BSTAR": 0.0023506, "MEAN_MOTION_DOT": 0.00015924, "MEAN_MOTION_DDOT": 0}, "tle": {"line1": "1 33911U 93036DQ  25360.56429563  .00015924  00000+0  23506-2 0  9992", "line2": "2 33911  74.0903 134.9269 0014056  65.4260  60.9068 14.75214363888486"}}, "geometry": {"type": "Point", "coordinates": [146.60671064026081, 37.633541383352934]}}, {"type": "Feature", "properties": {"norad_id": 33912, "name": "COSMOS 2251 DEB", "group": "cosmos-2251-debris", "lat": 5.351864188005473, "lon": -18.846208235979155, "alt_km": 718.0305754932724, "timestamp": "2025-12-27T02:10:16.581990+00:00", "meta": {"OBJECT_NAME": "COSMOS 2251 DEB", "OBJECT_ID": "1993-036DR", "EPOCH": "2025-12-26T12:26:23.449344", "MEAN_MOTION": 14.51975431, "ECCENTRICITY": 0.0011258, "INCLINATION": 74.0335, "RA_OF_ASC_NODE": 163.7682, "ARG_OF_PERICENTER": 243.0347, "MEAN_ANOMALY": 181.9648, "EPHEMERIS_TYPE": 0, "CLASSIFICATION_TYPE": "U", "NORAD_CAT_ID": 33912, "ELEMENT_SET_NO": 999, "REV_AT_EPOCH": 88633, "BSTAR": 0.0008558, "MEAN_MOTION_DOT": 3.432e-05, "MEAN_MOTION_DDOT": 0}, "tle": {"line1": "1 33912U 93036DR  25360.51832696  .00003432  00000+0  85580-3 0  9995", "line2": "2 33912  74.0335 163.7682 0011258 243.0347 181.9648 14.51975431886330"}}, "geometry": {"type": "Point", "coordinates": [-18.846208235979155, 5.351864188005473]}}, {"type": "Feature", "properties": {"norad_id": 33913, "name": "COSMOS 2251 DEB", "group": "cosmos-2251-debris", "lat": 72.7917777940399, "lon": -135.65865582401628, "alt_km": 757.0575084077509, "timestamp": "2025-12-27T02:10:16.582000+00:00", "meta": {"OBJECT_NAME": "COSMOS 2251 DEB", "OBJECT_ID": "1993-036DS", "EPOCH": "2025-12-26T17:33:58.815072", "MEAN_MOTION": 14.48544439, "ECCENTRICITY": 0.0048172, "INCLINATION": 74.0331, "RA_OF_ASC_NODE": 157.4288, "ARG_OF_PERICENTER": 257.4125, "MEAN_ANOMALY": 117.2528, "EPHEMERIS_TYPE": 0, "CLASSIFICATION_TYPE": "U", "NORAD_CAT_ID": 33913, "ELEMENT_SET_NO": 999, "REV_AT_EPOCH": 88660, "BSTAR": 0.00067592, "MEAN_MOTION_DOT": 2.549e-05, "MEAN_MOTION_DDOT": 0}, "tle": {"line1": "1 33913U 93036DS  25360.73193073  .00002549  00000+0  67592-3 0  9990", "line2": "2 33913  74.0331 157.4288 0048172 257.4125 117.2528 14.48544439886602"}}, "geometry": {"type": "Point", "coordinates": [-135.65865582401628, 72.7917777940399]}}, {"type": "Feature", "properties": {"norad_id": 33914, "name": "COSMOS 2251 DEB", "group": "cosmos-2251-debris", "lat": 54.65441079807401, "lon": 15.15563853358437, "alt_km": 798.879644949905, "timestamp": "2025-12-27T02:10:16.582012+00:00", "meta": {"OBJECT_NAME": "COSMOS 2251 DEB", "OBJECT_ID": "1993-036DT", "EPOCH": "2025-12-26T03:29:35.982240", "MEAN_MOTION": 13.71992842, "ECCENTRICITY": 0.03007747, "INCLINATION": 74.0912, "RA_OF_ASC_NODE": 353.0015, "ARG_OF_PERICENTER": 92.7934, "MEAN_ANOMALY": 341.7967, "EPHEMERIS_TYPE": 0, "CLASSIFICATION_TYPE": "U", "NORAD_CAT_ID": 33914, "ELEMENT_SET_NO": 999, "REV_AT_EPOCH": 84265, "BSTAR": 0.00027030331, "MEAN_MOTION_DOT": 3.19e-06, "MEAN_MOTION_DDOT": 0}, "tle": {"line1": "1 33914U 93036DT  25360.14555535  .00000319  00000+0  27030-3 0  9997", "line2": "2 33914  74.0912 353.0015 0300774  92.7934 341.7967 13.71992842842655"}}, "geometry": {"type": "Point", "coordinates": [15.15563853358437, 54.65441079807401]}}, {"type": "Feature", "properties": {"norad_id": 33915, "name": "COSMOS 2251 DEB", "group": "cosmos-2251-debris", "lat": -19.443251270112526, "lon": -166.3974278854841, "alt_km": 796.292240414391, "timestamp": "2025-12-27T02:10:16.582022+00:00", "meta": {"OBJECT_NAME": "COSMOS 2251 DEB", "OBJECT_ID": "1993-036DU", "EPOCH": "2025-12-26T19:21:43.389216", "MEAN_MOTION": 14.35113139, "ECCENTRICITY": 0.010397, "INCLINATION": 74.0429, "RA_OF_ASC_NODE": 8.3255, "ARG_OF_PERICENTER": 97.067, "MEAN_ANOMALY": 76.7073, "EPHEMERIS_TYPE": 0, "CLASSIFICATION_TYPE": "U", "NORAD_CAT_ID": 33915, "ELEMENT_SET_NO": 999, "REV_AT_EPOCH": 87959, "BSTAR": 0.00036878, "MEAN_MOTION_DOT": 1.093e-05, "MEAN_MOTION_DDOT": 0}, "tle": {"line1": "1 33915U 93036DU  25360.80675219  .00001093  00000+0  36878-3 0  9993", "line2": "2 33915  74.0429   8.3255 0103970  97.0670  76.7073 14.35113139879590"}}, "geometry": {"type": "Point", "coordinates": [-166.3974278854841, -19.443251270112526]}}, {"type": "Feature", "properties": {"norad_id": 33916, "name": "COSMOS 2251 DEB", "group": "cosmos-2251-debris", "lat": 28.78258425624967, "lon": -172.02898314312043, "alt_km": 806.6517084571087, "timestamp": "2025-12-27T02:10:16.582032+00:00", "meta": {"OBJECT_NAME": "COSMOS 2251 DEB", "OBJECT_ID": "1993-036DV", "EPOCH": "2025-12-26T11:59:17.834208", "MEAN_MOTION": 13.68627159, "ECCENTRICITY": 0.03247, "INCLINATION": 74.0518, "RA_OF_ASC_NODE": 17.9793, "ARG_OF_PERICENTER": 187.1665, "MEAN_ANOMALY": 294.2626, "EPHEMERIS_TYPE": 0, "CLASSIFICATION_TYPE": "U", "NORAD_CAT_ID": 33916, "ELEMENT_SET_NO": 999, "REV_AT_EPOCH": 84079, "BSTAR": 0.00030166, "MEAN_MOTION_DOT": 3.52e-06, "MEAN_MOTION_DDOT": 0}, "tle": {"line1": "1 33916U 93036DV  25360.49951197  .00000352  00000+0  30166-3 0  9992", "line2": "2 33916  74.0518  17.9793 0324700 187.1665 294.2626 13.68627159840792"}}, "geometry": {"type": "Point", "coordinates": [-172.02898314312043, 28.78258425624967]}}]}